#cP2022  3 18  0  0  0.00000000     576 d+D   IGb14 EXT AIUB
## 2201 432000.00000000   300.00000000 59656 0.0000000000000
+   75   G01G02G03G04G05G06G07G08G09G10G11G12G13G14G15G16G17
+        G18G19G20G21G22G23G24G25G26G27G28G29G31G32R01R02R03
+        R04R05R07R08R09R12R13R14R15R17R18R19R20R21R22R24E01
+        E02E03E04E05E07E08E10E11E12E13E14E15E18E19E21E24E25
+        E26E27E30E31E33E34E36  0  0  0  0  0  0  0  0  0  0
++         6  7  6  8  7  7  8  6  6  5  8  7  8  7  7  7  7
++         8  7  7  7  7  7  7  6  6  6  7  7  7  6  8  7  8
++         8  7  8  7  6  6  8  7  7  8  8  9  9  8  8  8  7
++         6  6  6  6  6  6  9  7  8  6  7  6  6  7  6  6  6
++         8  6  6  6  6  7  7  0  0  0  0  0  0  0  0  0  0
%c M  cc GPS ccc cccc cccc cccc cccc ccccc ccccc ccccc ccccc
%c cc cc ccc ccc cccc cccc cccc cccc ccccc ccccc ccccc ccccc
%f  1.2500000  1.025000000  0.00000000000  0.000000000000000
%f  0.0000000  0.000000000  0.00000000000  0.000000000000000
%i    0    0    0    0      0      0      0      0         0
%i    0    0    0    0      0      0      0      0         0
/* Center for Orbit Determination in Europe (CODE)          
/* Ultra-rapid GRE orbits starting year-day 22077 00 hour   
/* Observed/predicted: 24/24 hours (data used up to 077X)   
/* PCV:IGS14      OL/AL:FES2014b NONE     YN ORB:CoN CLK:BRD
*  2022  3 18  7  5  0.00000000
PG01 -13704.842318  20704.288221   8634.203491    406.211628
PG02  15401.187754  -1443.810437 -20952.824871   -652.376939
PG03 -18799.209232  12914.309979 -13619.127031   -168.571699
PG04  -8989.971350  12763.377478 -21470.666707   -182.823813
PG05  26153.366389  -4933.441876  -1409.969631    -75.077880
PG06   8190.805288  15710.595420 -19692.719311    235.223953
PG07  -4033.623435  25214.577536   6675.967226    316.568759
PG08 -16477.779602   3024.785181  20659.626186    -60.297259
PG09   1780.662975  20279.284569 -17108.961669   -349.137402
PG10 -10673.682097 -12580.902541  21021.469902   -350.408312
PG11  15854.453883    553.235333 -21304.798846    -60.798387
PG12  21832.164312 -10219.401536 -11270.061987   -186.609365
PG13  18632.472864   6477.356974  17712.464811    278.781783
PG14   9173.648663  13654.764319  20860.489317    -94.923409
PG15  16030.493295  -5634.774038  20074.952232    -75.915942
PG16 -26342.411600  -1086.950810  -5132.955216   -481.944986
PG17  13131.512146  22666.848617   4646.987189    588.696889
PG18   4970.126740 -25276.722433   6235.569368    217.209423
PG19  16992.142312  20224.964042  -3887.603696    132.515046
PG20  24147.119910   -178.323298 -10780.666909    516.251218
PG21 -16116.710586  11664.252849  17928.095798    159.520101
PG22 -18174.963788 -18543.479508  -5626.490930    229.269526
PG23   2103.503059 -15539.893409  21413.968315     -7.759621
PG24  14384.329299 -18069.147370  12449.142914    266.953153
PG25   9679.581822 -15692.038243 -19303.688579    299.862492
PG26 -20679.385488  -6744.814006 -15532.715657    191.693546
PG27 -20489.174831  -8711.801712  14574.828215    157.648154
PG28  17054.424905  10701.738140  17721.419710    377.995043
PG29   1172.438327 -19179.828323 -18360.208074   -492.688797
PG31 -10448.414276 -13282.738748 -20504.181602   -169.434716
PG32 -16699.965172 -20749.325365   1369.170780    -87.028769
PR01  14449.337916  14024.252249 -15662.158716      7.276500
PR02  23681.475134   8829.020373   3247.532647    512.837491
PR03  17706.238983  -1767.266527  18299.977075     53.308704
PR04   1929.818559 -10910.447289  23008.330832    132.456747
PR05 -14877.911179 -14283.129658  15041.348792     89.564830
PR07 -17284.549303   2094.310586 -18619.243968     32.781123
PR08  -1827.956735  11031.225544 -22864.318838    -64.075881
PR09 -17573.683420   2114.132045 -18322.784510     44.958053
PR12   3421.043814  11041.217540  22759.840575     17.482640
PR13  16821.124263  -1350.447991  19105.383430    -19.600079
PR14  21143.769610 -13864.057829   3431.937224     75.499768
PR15  12694.836961 -17539.233140 -13471.285404     97.470039
PR17   8822.524380  -9995.548791 -21731.271230    510.461226
PR18   2343.059863 -23177.759975 -10445.666020    110.649679
PR19  -4190.656541 -24610.244136   5250.945802   -181.992081
PR20 -10104.826390 -10329.034515  21042.803138    -66.925408
PR21  -8381.514292  11461.444076  21196.119801   -286.200613
PR22  -2080.219127  23454.949343   9663.031437   -171.296905
PR24  10828.659675   9297.052817 -21126.146804     84.903255
PE01 -28666.140734   6130.163315  -4154.476279   -598.975917
PE02  28645.171248  -6243.041193   3987.999926    286.985750
PE03  22509.332901   2186.187164  19105.281286   -538.552905
PE04  -8884.369866  14814.173627 -24028.178676   -986.990703
PE05  23151.486349  18224.020954   2850.782756   -199.315297
PE07 -10306.061875 -23441.021145  14849.969869   -649.469543
PE08   8403.977573 -15006.338108  24093.605321   -497.046790
PE10  -6504.795216  28859.166943    938.439353   -501.183803
PE11    268.241876  28109.727288  -9239.760748   4200.915459
PE12 -12098.890728  24924.966146  10384.750840   4707.909581
PE13    149.832796 -28326.350709   8618.848145    427.367627
PE14  25427.486876   9614.904732 -17529.670167  -1782.191780
PE15  12063.544381 -24900.334095 -10526.836130    757.115118
PE18 -18478.393232  -9130.752000  11533.301960  -1670.837316
PE19 -23323.826762  -4564.900253 -17639.049496  -1505.015256
PE21 -21317.518648  -6975.028474 -19325.963624   -723.191975
PE24   -208.266662  17277.294293  24019.196577   -511.584244
PE25  21102.723559   7153.398255  19479.679274   -567.197273
PE26 -12345.488112 -14167.647394  22877.912957   -925.506030
PE27  -1328.846122 -16906.257470 -24261.391985   -255.719481
PE30  20191.265343 -16451.345326 -14060.683280   -357.724913
PE31 -19296.014156  16814.042180  14880.158912   -493.700781
PE33 -16818.300090   6779.189590  23399.081970   -458.464624
PE34  16810.574637  -7059.152368 -23321.319431   -507.350027
PE36  11774.872248  15081.919035 -22574.291303   -346.894500
EOF
